[{"OBJECT_NAME":"LUR-1","OBJECT_ID":"2024-149AQ","EPOCH":"2026-03-09T19:05:45.284064","MEAN_MOTION":15.28658648,"ECCENTRICITY":0.00027765,"INCLINATION":97.379,"RA_OF_ASC_NODE":148.4255,"ARG_OF_PERICENTER":309.1571,"MEAN_ANOMALY":50.9421,"EPHEMERIS_TYPE":0,"CLASSIFICATION_TYPE":"U","NORAD_CAT_ID":60506,"ELEMENT_SET_NO":999,"REV_AT_EPOCH":8678,"BSTAR":0.0003298462,"MEAN_MOTION_DOT":9.121e-5,"MEAN_MOTION_DDOT":0},{"OBJECT_NAME":"STARLINK-35564","OBJECT_ID":"2026-005S","EPOCH":"2026-03-09T11:31:06.388320","MEAN_MOTION":15.27590548,"ECCENTRICITY":7.417e-5,"INCLINATION":42.9974,"RA_OF_ASC_NODE":239.2264,"ARG_OF_PERICENTER":224.6993,"MEAN_ANOMALY":135.3799,"EPHEMERIS_TYPE":0,"CLASSIFICATION_TYPE":"U","NORAD_CAT_ID":67420,"ELEMENT_SET_NO":999,"REV_AT_EPOCH":866,"BSTAR":0.00091526055,"MEAN_MOTION_DOT":0.00025017,"MEAN_MOTION_DDOT":0}]
